NORAD_CAT_ID,OBJECT_NAME,OBJECT_TYPE,EPOCH,MEAN_MOTION,ECCENTRICITY,INCLINATION,RA_OF_ASC_NODE,ARG_OF_PERICENTER,MEAN_ANOMALY,BSTAR,MEAN_MOTION_DOT,MEAN_MOTION_DDOT,TLE_LINE0,TLE_LINE1,TLE_LINE2,SEMIMAJOR_AXIS,PERIOD,APOGEE,PERIGEE,DECAYED
53926.0,STARLINK-5014,PAYLOAD,2023-07-08 19:19:33,15.08841882,0.0001163,53.2182,5.3305,89.3529,270.7596,8.3162e-05,1.036e-05,0.0,0 STARLINK-5014,1 53926U 22119AS  23189.80524607  .00001036  00000-0  83162-4 0  9999,2 53926  53.2182   5.3305 0001163  89.3529 270.7596 15.08841882 44303,6917.875,95.437,540.544,538.935,0.0
53926.0,STARLINK-5014,PAYLOAD,2023-07-09 04:51:52,15.08832428,6.56e-05,53.2186,3.5461,96.5562,263.5504,-4.5069e-05,-1.005e-05,0.0,0 STARLINK-5014,1 53926U 22119AS  23190.20269277 -.00001005  00000-0 -45069-4 0  9996,2 53926  53.2186   3.5461 0000656  96.5562 263.5504 15.08832428 44364,6917.904,95.438,540.222,539.315,0.0
53926.0,STARLINK-5014,PAYLOAD,2023-07-09 20:45:43,15.08840799,0.0001102,53.2178,0.5723,84.0797,276.0321,8.1998e-05,1.017e-05,0.0,0 STARLINK-5014,1 53926U 22119AS  23190.86508908  .00001017  00000-0  81998-4 0  9997,2 53926  53.2178   0.5723 0001102  84.0797 276.0321 15.08840799 44469,6917.878,95.438,540.505,538.981,0.0
53926.0,STARLINK-5014,PAYLOAD,2023-07-10 22:11:52,15.08853041,0.0001057,53.2179,355.8137,103.5936,256.5174,0.00016914,2.406e-05,0.0,0 STARLINK-5014,1 53926U 22119AS  23191.92491891  .00002406  00000-0  16914-3 0  9995,2 53926  53.2179 355.8137 0001057 103.5936 256.5174 15.08853041 44627,6917.841,95.437,540.437,538.974,0.0
53926.0,STARLINK-5014,PAYLOAD,2023-07-11 10:54:59,15.08837804,0.0001038,53.2166,353.4354,94.4648,265.6463,0.00015949,2.251e-05,0.0,0 STARLINK-5014,1 53926U 22119AS  23192.45485089  .00002251  00000-0  15949-3 0  9991,2 53926  53.2166 353.4354 0001038  94.4648 265.6463 15.08837804 44705,6917.887,95.438,540.47,539.034,0.0
53926.0,STARLINK-5014,PAYLOAD,2023-07-11 22:02:40,15.08850511,0.0001161,53.2164,351.354,92.1024,268.0101,0.00025396,3.757e-05,0.0,0 STARLINK-5014,1 53926U 22119AS  23192.91852510  .00003757  00000-0  25396-3 0  9998,2 53926  53.2164 351.3540 0001161  92.1024 268.0101 15.08850511 44770,6917.848,95.437,540.516,538.91,0.0
53926.0,STARLINK-5014,PAYLOAD,2023-07-12 10:45:46,15.08840871,0.0001209,53.2175,348.9748,84.2624,275.8506,6.4455e-05,7.38e-06,0.0,0 STARLINK-5014,1 53926U 22119AS  23193.44844961  .00000738  00000-0  64455-4 0  9994,2 53926  53.2175 348.9748 0001209  84.2624 275.8506 15.08840871 44857,6917.878,95.437,540.579,538.906,0.0
53926.0,STARLINK-5014,PAYLOAD,2023-07-13 16:58:05,15.08845185,0.0001193,53.2175,343.3249,91.5175,268.5954,0.00074787,0.00011636,0.0,0 STARLINK-5014,1 53926U 22119AS  23194.70701101  .00011636  00000-0  74787-3 0  9999,2 53926  53.2175 343.3249 0001193  91.5175 268.5954 15.08845185 45047,6917.865,95.437,540.555,538.904,0.0
53926.0,STARLINK-5014,PAYLOAD,2023-07-14 10:27:20,15.08841207,0.0001342,53.2177,340.0535,77.3916,282.7226,0.00063075,9.765e-05,0.0,0 STARLINK-5014,1 53926U 22119AS  23195.43565347  .00009765  00000-0  63075-3 0  9998,2 53926  53.2177 340.0535 0001342  77.3916 282.7226 15.08841207 45155,6917.877,95.437,540.67,538.813,0.0
53926.0,STARLINK-5014,PAYLOAD,2023-07-15 18:15:03,15.08846767,0.0001308,53.2172,334.106,90.0274,270.0868,0.00066401,0.00010297,0.0,0 STARLINK-5014,1 53926U 22119AS  23196.76045583  .00010297  00000-0  66401-3 0  9998,2 53926  53.2172 334.1060 0001308  90.0274 270.0868 15.08846767 45358,6917.86,95.437,540.63,538.82,0.0
53926.0,STARLINK-5014,PAYLOAD,2023-07-16 02:11:59,15.08839744,0.0001304,53.2174,332.6189,94.4333,265.6808,0.00023045,3.382e-05,0.0,0 STARLINK-5014,1 53926U 22119AS  23197.09165732  .00003382  00000-0  23045-3 0  9998,2 53926  53.2174 332.6189 0001304  94.4333 265.6808 15.08839744 45402,6917.881,95.438,540.648,538.844,0.0
53926.0,STARLINK-5014,PAYLOAD,2023-07-17 14:45:51,15.08848195,0.000117,53.2162,325.7803,83.3471,276.7654,0.00026773,3.977e-05,0.0,0 STARLINK-5014,1 53926U 22119AS  23198.61517709  .00003977  00000-0  26773-3 0  9993,2 53926  53.2162 325.7803 0001170  83.3471 276.7654 15.08848195 45633,6917.855,95.437,540.53,538.911,0.0
53926.0,STARLINK-5014,PAYLOAD,2023-07-18 17:47:24,15.08855007,0.0001119,53.2158,320.7241,83.2303,276.8816,0.00032419,4.877e-05,0.0,0 STARLINK-5014,1 53926U 22119AS  23199.74125167  .00004877  00000-0  32419-3 0  9995,2 53926  53.2158 320.7241 0001119  83.2303 276.8816 15.08855007 45805,6917.835,95.437,540.474,538.925,0.0
53926.0,STARLINK-5014,PAYLOAD,2023-07-19 14:27:26,15.0883032,0.0001287,53.2178,316.8595,87.6513,272.4626,-6.2969e-05,-1.29e-05,0.0,0 STARLINK-5014,1 53926U 22119AS  23200.60238474 -.00001290  00000-0 -62969-4 0  9991,2 53926  53.2178 316.8595 0001287  87.6513 272.4626 15.08830320 45938,6917.91,95.438,540.665,538.885,0.0
53926.0,STARLINK-5014,PAYLOAD,2023-07-19 19:13:35,15.08835978,0.0001246,53.2177,315.9664,104.6057,255.5074,8.8177e-05,1.116e-05,0.0,0 STARLINK-5014,1 53926U 22119AS  23200.80110250  .00001116  00000-0  88177-4 0  9998,2 53926  53.2177 315.9664 0001246 104.6057 255.5074 15.08835978 45968,6917.893,95.438,540.62,538.896,0.0
53926.0,STARLINK-5014,PAYLOAD,2023-07-20 19:04:22,15.08862265,0.0001104,53.2177,311.5071,98.9652,261.1465,0.00099163,0.00015539,0.0,0 STARLINK-5014,1 53926U 22119AS  23201.79469926  .00015539  00000-0  99163-3 0  9994,2 53926  53.2177 311.5071 0001104  98.9652 261.1465 15.08862265 46115,6917.812,95.436,540.441,538.914,0.0
53926.0,STARLINK-5014,PAYLOAD,2023-07-21 07:47:27,15.08848071,0.0001013,53.2176,309.1294,84.8398,275.2709,0.00028341,4.227e-05,0.0,0 STARLINK-5014,1 53926U 22119AS  23202.32462060  .00004227  00000-0  28341-3 0  9998,2 53926  53.2176 309.1294 0001013  84.8398 275.2709 15.08848071 46198,6917.856,95.437,540.421,539.02,0.0
53926.0,STARLINK-5014,PAYLOAD,2023-07-23 18:36:43,15.08846281,0.000181,53.2162,298.1254,78.2712,281.8483,0.00067568,0.00010484,0.0,0 STARLINK-5014,1 53926U 22119AS  23204.77550547  .00010484  00000-0  67568-3 0  9993,2 53926  53.2162 298.1254 0001810  78.2712 281.8483 15.08846281 46999,6917.861,95.437,540.978,538.474,0.0
53926.0,STARLINK-5014,PAYLOAD,2023-07-25 11:56:44,15.08854186,0.0001406,53.2162,290.3917,129.8354,230.2762,0.00038024,5.771e-05,0.0,0 STARLINK-5014,1 53926U 22119AS  23206.49773656  .00005771  00000-0  38024-3 0  9990,2 53926  53.2162 290.3917 0001406 129.8354 230.2762 15.08854186 47256,6917.837,95.437,540.675,538.729,0.0
53926.0,STARLINK-5014,PAYLOAD,2023-07-26 08:36:45,15.0884706,0.0001414,53.2147,286.5316,71.7272,288.3874,0.00012969,1.777e-05,0.0,0 STARLINK-5014,1 53926U 22119AS  23207.35886114  .00001777  00000-0  12969-3 0  9992,2 53926  53.2147 286.5316 0001414  71.7272 288.3874 15.08847060 47387,6917.859,95.437,540.702,538.746,0.0
53926.0,STARLINK-5014,PAYLOAD,2023-07-26 14:58:17,15.08852003,0.0001487,53.2151,285.3429,68.6573,291.4578,0.00014401,2.005e-05,0.0,0 STARLINK-5014,1 53926U 22119AS  23207.62381894  .00002005  00000-0  14401-3 0  9995,2 53926  53.2151 285.3429 0001487  68.6573 291.4578 15.08852003 47427,6917.844,95.437,540.737,538.68,0.0
53926.0,STARLINK-5014,PAYLOAD,2023-07-28 01:56:47,15.0884134,9.78e-05,53.2157,278.7967,86.2328,273.8775,0.00013385,1.843e-05,0.0,0 STARLINK-5014,1 53926U 22119AS  23209.08110336  .00001843  00000-0  13385-3 0  9997,2 53926  53.2157 278.7967 0000978  86.2328 273.8775 15.08841340 47216,6917.876,95.437,540.418,539.065,0.0
53926.0,STARLINK-5014,PAYLOAD,2023-07-28 09:53:43,15.08832767,0.0001005,53.2163,277.3114,85.954,274.1567,-7.7094e-05,-1.514e-05,0.0,0 STARLINK-5014,1 53926U 22119AS  23209.41231125 -.00001514  00000-0 -77094-4 0  9999,2 53926  53.2163 277.3114 0001005  85.9540 274.1567 15.08832767 47267,6917.902,95.438,540.463,539.072,0.0
53926.0,STARLINK-5014,PAYLOAD,2023-07-28 13:04:29,15.08834035,0.0001018,53.2162,276.7165,87.3049,272.806,-7.0236e-05,-1.405e-05,0.0,0 STARLINK-5014,1 53926U 22119AS  23209.54479035 -.00001405  00000-0 -70236-4 0  9997,2 53926  53.2162 276.7165 0001018  87.3049 272.8060 15.08834035 47712,6917.899,95.438,540.468,539.059,0.0
53926.0,STARLINK-5014,PAYLOAD,2023-07-29 01:47:34,15.08836061,0.0001007,53.2161,274.3374,85.0839,275.0268,3.5414e-05,2.76e-06,0.0,0 STARLINK-5014,1 53926U 22119AS  23210.07470728  .00000276  00000-0  35414-4 0  9999,2 53926  53.2161 274.3374 0001007  85.0839 275.0268 15.08836061 47364,6917.892,95.438,540.454,539.061,0.0
53926.0,STARLINK-5014,PAYLOAD,2023-07-29 19:16:50,15.08820697,0.0001124,53.216,271.0664,83.104,277.008,7.6654e-05,9.32e-06,0.0,0 STARLINK-5014,1 53926U 22119AS  23210.80335819  .00000932  00000-0  76654-4 0  9991,2 53926  53.2160 271.0664 0001124  83.1040 277.0080 15.08820697 47476,6917.939,95.439,540.582,539.027,0.0
53926.0,STARLINK-5014,PAYLOAD,2023-07-30 09:35:17,15.08839904,0.0001152,53.2152,268.3901,88.1392,271.9733,0.00016094,2.274e-05,0.0,0 STARLINK-5014,1 53926U 22119AS  23211.39951165  .00002274  00000-0  16094-3 0  9996,2 53926  53.2152 268.3901 0001152  88.1392 271.9733 15.08839904 47565,6917.881,95.438,540.543,538.949,0.0
53926.0,STARLINK-5014,PAYLOAD,2023-07-31 15:47:37,15.08844415,0.0001164,53.2144,262.7405,88.6292,271.4834,0.00043648,6.666e-05,0.0,0 STARLINK-5014,1 53926U 22119AS  23212.65807419  .00006666  00000-0  43648-3 0  9992,2 53926  53.2144 262.7405 0001164  88.6292 271.4834 15.08844415 47751,6917.867,95.437,540.537,538.927,0.0
53926.0,STARLINK-5014,PAYLOAD,2023-08-01 02:55:19,15.08841069,0.0001169,53.2143,260.6588,87.2261,272.8864,0.00024504,3.614e-05,0.0,0 STARLINK-5014,1 53926U 22119AS  23213.12175579  .00003614  00000-0  24504-3 0  9990,2 53926  53.2143 260.6588 0001169  87.2261 272.8864 15.08841069 47823,6917.877,95.437,540.551,538.933,0.0
53926.0,STARLINK-5014,PAYLOAD,2023-08-02 09:07:39,15.08844467,0.0001131,53.2147,255.0084,86.1803,273.9318,0.00017925,2.566e-05,0.0,0 STARLINK-5014,1 53926U 22119AS  23214.38031335  .00002566  00000-0  17925-3 0  9994,2 53926  53.2147 255.0084 0001131  86.1803 273.9318 15.08844467 48018,6917.867,95.437,540.514,538.949,0.0
